      2.10          N: GNSS NAV DATA                        RINEX VERSION / TYPE
fic2rin                                 08/27/2020 00:17:37 PGM / RUN BY / DATE
                                                            END OF HEADER
 5 20  8 26 20  0  0.0-1.970073208213e-05-7.958078640513e-13 0.000000000000e+00
    5.100000000000e+01-4.434375000000e+01 4.830201197268e-09 1.558618657306e+00
   -2.175569534302e-06 6.082295440137e-03 9.514391422272e-06 5.153723566055e+03
    3.312000000000e+05-1.527369022369e-07 2.452644474350e+00 9.313225746155e-08
    9.536011252917e-01 1.948437500000e+02 8.551762456147e-01-8.101408884770e-09
    3.939449808183e-10 1.000000000000e+00 2.120000000000e+03 0.000000000000e+00
    2.400000000000e+00 0.000000000000e+00-1.117587089539e-08 5.100000000000e+01
    3.240000000000e+05 4.000000000000e+00
 3 20  8 26 20  0  0.0-2.814298495650e-04-1.091393642128e-11 0.000000000000e+00
    1.000000000000e+02-3.115625000000e+01 4.513045129302e-09-2.481069165735e+00
   -1.633539795876e-06 3.178511746228e-03 9.093433618546e-06 5.153760665894e+03
    3.312000000000e+05 4.284083843231e-08 2.485782026548e+00-5.401670932770e-08
    9.667065701118e-01 2.067500000000e+02 8.426420937112e-01-7.913186758848e-09
    3.975165581602e-10 1.000000000000e+00 2.120000000000e+03 0.000000000000e+00
    2.400000000000e+00 0.000000000000e+00 1.862645149231e-09 1.000000000000e+02
    3.240000000000e+05 4.000000000000e+00
 6 20  8 26 20  0  0.0-3.197221085429e-04-3.865352482535e-12 0.000000000000e+00
    8.000000000000e+01-9.281250000000e+01 4.065526488354e-09-1.035708147116e+00
   -4.924833774567e-06 1.760665560141e-03 7.634982466698e-06 5.153607221603e+03
    3.312000000000e+05-3.166496753693e-08 1.437365959193e+00-9.313225746155e-09
    9.805370590757e-01 2.455312500000e+02-1.106106913290e+00-7.932830434229e-09
    7.393165097859e-11 1.000000000000e+00 2.120000000000e+03 0.000000000000e+00
    2.400000000000e+00 0.000000000000e+00 4.190951585770e-09 8.000000000000e+01
    3.240000000000e+05 4.000000000000e+00
16 20  8 26 20  0  0.0-2.008699811995e-04-5.002220859751e-12 0.000000000000e+00
    6.000000000000e+00 7.618750000000e+01 3.977665685742e-09 1.653976094743e+00
    3.995373845100e-06 1.153284928296e-02 7.247552275658e-06 5.153567468643e+03
    3.312000000000e+05-1.955777406693e-07-5.667931035164e-01 7.450580596924e-08
    9.773818695466e-01 2.522812500000e+02 6.281556573188e-01-7.966403261244e-09
   -1.075044779930e-10 1.000000000000e+00 2.120000000000e+03 0.000000000000e+00
    2.400000000000e+00 0.000000000000e+00-1.071020960808e-08 6.000000000000e+00
    3.240000000000e+05 4.000000000000e+00
10 20  8 26 20  0  0.0-4.382375627756e-04-1.011812855722e-11 0.000000000000e+00
    5.500000000000e+01-3.371875000000e+01 4.405897809043e-09 2.908156920820e+00
   -1.665204763412e-06 5.828965222463e-03 9.203329682350e-06 5.153669878006e+03
    3.312000000000e+05-4.470348358154e-08 2.482780512174e+00-1.285225152969e-07
    9.666347466858e-01 2.073750000000e+02-2.655779026325e+00-7.766394930094e-09
    3.700154126271e-10 1.000000000000e+00 2.120000000000e+03 0.000000000000e+00
    2.400000000000e+00 0.000000000000e+00 2.328306436539e-09 5.500000000000e+01
    3.240000000000e+05 4.000000000000e+00
 8 20  8 26 20  0  0.0-4.582386463881e-05-1.250555214938e-12 0.000000000000e+00
    1.170000000000e+02 6.593750000000e+00 4.304107854797e-09 9.465477506217e-01
    3.650784492493e-07 5.416510277428e-03 3.399327397346e-06 5.153715232849e+03
    3.312000000000e+05 8.195638656616e-08 3.746438725754e-01 7.078051567078e-08
    9.694359802598e-01 3.173437500000e+02-6.049755374880e-02-8.209627678231e-09
    1.892935991239e-11 1.000000000000e+00 2.120000000000e+03 0.000000000000e+00
    2.400000000000e+00 0.000000000000e+00 5.122274160385e-09 1.170000000000e+02
    3.240000000000e+05 4.000000000000e+00
 4 20  8 26 20  0  0.0-1.289937645197e-04-4.320099833421e-12 0.000000000000e+00
    6.800000000000e+01-5.468750000000e+00 4.821272253913e-09 2.103682195950e-02
   -4.470348358154e-07 7.982124807313e-04 7.109716534615e-06 5.153635141373e+03
    3.312000000000e+05-8.009374141693e-08-2.718384008657e+00-1.862645149231e-09
    9.603516437350e-01 2.391875000000e+02-2.792394002739e+00-8.099980253833e-09
   -1.585780339831e-10 1.000000000000e+00 2.120000000000e+03 0.000000000000e+00
    2.400000000000e+00 0.000000000000e+00-4.190951585770e-09 3.240000000000e+02
    3.240000000000e+05 4.000000000000e+00
 9 20  8 26 20  0  0.0-2.765576355159e-04-5.911715561524e-12 0.000000000000e+00
    1.500000000000e+01-4.218750000000e+00 4.973421448680e-09 1.217636858891e+00
   -3.688037395477e-07 1.690814970061e-03 7.329508662224e-06 5.153662755966e+03
    3.312000000000e+05-4.842877388000e-08-2.767010017302e+00-9.313225746155e-09
    9.531306698553e-01 2.331875000000e+02 1.762563683452e+00-8.144982128342e-09
   -7.214586230761e-11 1.000000000000e+00 2.120000000000e+03 0.000000000000e+00
    2.400000000000e+00 0.000000000000e+00 1.396983861923e-09 1.500000000000e+01
    3.240000000000e+05 4.000000000000e+00
25 20  8 26 20  0  0.0 4.055770114064e-05 5.002220859751e-12 0.000000000000e+00
    1.300000000000e+01 9.640625000000e+01 4.124457514496e-09-2.993218380314e+00
    5.016103386879e-06 9.096973226406e-03 7.651746273041e-06 5.153750782013e+03
    3.312000000000e+05 3.352761268616e-08-6.556916025643e-01-7.264316082001e-08
    9.644592309696e-01 2.311562500000e+02 9.350587249491e-01-7.813896908742e-09
    3.392998474863e-11 1.000000000000e+00 2.120000000000e+03 0.000000000000e+00
    2.400000000000e+00 0.000000000000e+00 5.587935447693e-09 1.300000000000e+01
    3.240000000000e+05 4.000000000000e+00
31 20  8 26 20  0  0.0-6.471434608102e-05-2.387423592154e-12 0.000000000000e+00
    3.300000000000e+01 2.171875000000e+01 4.605906140193e-09-2.384345138986e+00
    1.078471541405e-06 9.623233112507e-03 9.357929229736e-06 5.153640943527e+03
    3.312000000000e+05-8.568167686462e-08-1.677330688036e+00-9.872019290924e-08
    9.568295543516e-01 1.980625000000e+02 1.493819473406e-01-7.941045062116e-09
   -3.353711124101e-10 1.000000000000e+00 2.120000000000e+03 0.000000000000e+00
    2.400000000000e+00 0.000000000000e+00-1.303851604462e-08 3.300000000000e+01
    3.240000000000e+05 4.000000000000e+00
27 20  8 26 20  0  0.0-3.807307220995e-04-9.208633855451e-12 0.000000000000e+00
    4.000000000000e+01 9.187500000000e+00 4.135886561991e-09 8.007306069467e-01
    3.892928361893e-07 8.330212906003e-03 3.835186362267e-06 5.153674079895e+03
    3.312000000000e+05-2.980232238770e-08 3.896602409702e-01 9.872019290924e-08
    9.778951680018e-01 3.146875000000e+02 5.798815799497e-01-8.198912946205e-09
   -1.285767843106e-11 1.000000000000e+00 2.120000000000e+03 0.000000000000e+00
    2.400000000000e+00 0.000000000000e+00 1.862645149231e-09 4.000000000000e+01
    3.240000000000e+05 4.000000000000e+00
28 20  8 26 20  0  0.0 6.854319944978e-04-4.092726157978e-12 0.000000000000e+00
    2.000000000000e+01 9.059375000000e+01 3.983380209489e-09 1.568070835804e+00
    4.429370164871e-06 1.840517309029e-02 6.627291440964e-06 5.153669631958e+03
    3.312000000000e+05 2.980232238770e-07-5.631205427681e-01-4.190951585770e-07
    9.764250830868e-01 2.560312500000e+02-1.398707474123e+00-7.871399303947e-09
    6.393123442110e-11 1.000000000000e+00 2.120000000000e+03 0.000000000000e+00
    2.400000000000e+00 0.000000000000e+00-1.117587089539e-08 2.000000000000e+01
    3.240000000000e+05 4.000000000000e+00
24 20  8 26 20  0  0.0-1.769745722413e-05-5.684341886081e-13 0.000000000000e+00
    4.100000000000e+01 2.115625000000e+01 5.135571060005e-09-1.058891314205e+00
    1.030042767525e-06 9.961095056497e-03 8.964911103249e-06 5.153637140274e+03
    3.312000000000e+05 2.533197402954e-07-1.766982952698e+00 4.470348358154e-08
    9.357614405743e-01 1.937187500000e+02 6.712726105244e-01-8.256058183677e-09
   -5.300220775470e-10 1.000000000000e+00 2.120000000000e+03 0.000000000000e+00
    3.400000000000e+00 0.000000000000e+00 2.793967723846e-09 4.100000000000e+01
    3.240000000000e+05 4.000000000000e+00
29 20  8 26 20  0  0.0-1.813378185034e-04-8.185452315956e-12 0.000000000000e+00
    9.300000000000e+01 1.875000000000e+00 4.013738616896e-09 9.498870937416e-01
    9.685754776001e-08 1.629597856663e-03 3.173947334290e-06 5.153758663177e+03
    3.312000000000e+05 2.980232238770e-08 4.605240278400e-01 3.911554813385e-08
    9.855313019403e-01 3.300000000000e+02 2.182025704483e+00-8.107837723985e-09
    7.714607058635e-11 1.000000000000e+00 2.120000000000e+03 0.000000000000e+00
    2.400000000000e+00 0.000000000000e+00-1.024454832077e-08 9.300000000000e+01
    3.240000000000e+05 4.000000000000e+00
19 20  8 26 20  0  0.0-1.132013276219e-04 5.002220859751e-12 0.000000000000e+00
    5.100000000000e+01-1.084375000000e+01 4.090527529748e-09-2.971199188384e+00
   -6.593763828278e-07 9.336241637357e-03 3.000721335411e-06 5.153701160431e+03
    3.312000000000e+05 8.195638656616e-08 4.940918183932e-01 8.568167686462e-08
    9.820805239615e-01 3.282187500000e+02 1.704476803649e+00-8.013905239892e-09
    5.785955293977e-11 1.000000000000e+00 2.120000000000e+03 0.000000000000e+00
    2.400000000000e+00 0.000000000000e+00-1.536682248116e-08 5.100000000000e+01
    3.240000000000e+05 4.000000000000e+00
22 20  8 26 20  0  0.0-7.605706341565e-04 3.524291969370e-12 0.000000000000e+00
    6.700000000000e+01-3.190625000000e+01 5.387010104880e-09-1.569657541623e-01
   -1.674517989159e-06 6.804007571191e-03 8.791685104370e-06 5.153750434875e+03
    3.312000000000e+05-8.940696716309e-08 2.396085103385e+00-8.381903171539e-08
    9.317974548413e-01 1.975937500000e+02-1.101227819633e+00-8.483924818094e-09
    3.839445642608e-10 1.000000000000e+00 2.120000000000e+03 0.000000000000e+00
    2.400000000000e+00 0.000000000000e+00-1.816079020500e-08 6.700000000000e+01
    3.240000000000e+05 4.000000000000e+00
